[{"OBJECT_NAME":"STARLINK-30535","OBJECT_ID":"2023-153L","EPOCH":"2026-03-09T01:20:09.280608","MEAN_MOTION":15.26739724,"ECCENTRICITY":0.00018594,"INCLINATION":42.9996,"RA_OF_ASC_NODE":70.2617,"ARG_OF_PERICENTER":273.2776,"MEAN_ANOMALY":86.7863,"EPHEMERIS_TYPE":0,"CLASSIFICATION_TYPE":"U","NORAD_CAT_ID":58001,"ELEMENT_SET_NO":999,"REV_AT_EPOCH":13480,"BSTAR":-3.906097e-6,"MEAN_MOTION_DOT":-3.65e-6,"MEAN_MOTION_DDOT":0},{"OBJECT_NAME":"CZ-4B R\/B","OBJECT_ID":"2004-035C","EPOCH":"2026-03-09T23:23:31.358400","MEAN_MOTION":15.2906998,"ECCENTRICITY":0.00309852,"INCLINATION":97.3501,"RA_OF_ASC_NODE":103.2135,"ARG_OF_PERICENTER":330.5139,"MEAN_ANOMALY":29.4353,"EPHEMERIS_TYPE":0,"CLASSIFICATION_TYPE":"U","NORAD_CAT_ID":28415,"ELEMENT_SET_NO":999,"REV_AT_EPOCH":17995,"BSTAR":0.00034109099,"MEAN_MOTION_DOT":9.691e-5,"MEAN_MOTION_DDOT":0}]
